start=new Date('2022-02-25T00:00:00.000Z').valueOf();
sats=[{"LAUNCH_DATE":"2020-04-22","ELEMENT_SET_NO":"999","INCLINATION":"53.0490","NORAD_CAT_ID":"45539","MEAN_ELEMENT_THEORY":"SGP4","RA_OF_ASC_NODE":"98.9413","ECCENTRICITY":"0.00074280","MEAN_ANOMALY":"49.0257","TLE_LINE2":"2 45539  53.0490  98.9413 0007428 311.0119  49.0257 15.76734307104926","MEAN_MOTION_DDOT":"0.0000000000000","ARG_OF_PERICENTER":"311.0119","REF_FRAME":"TEME","OBJECT_ID":"2020-025J","TIME_SYSTEM":"UTC","REV_AT_EPOCH":"10492","EPOCH":"2022-02-24T14:23:46.245984","MEAN_MOTION_DOT":"0.00000392","GP_ID":"196898961","EPHEMERIS_TYPE":"0","MEAN_MOTION":"15.76734307","TLE_LINE1":"1 45539U 20025J   22055.59984081  .00000392  00000-0  64591-5 0  9997","RCS_SIZE":"LARGE","SITE":"AFETR","PERIOD":"91.328","PERIAPSIS":"334.713","FILE":"3320325","BSTAR":"0.00000645910000","CLASSIFICATION_TYPE":"U","CENTER_NAME":"EARTH","COUNTRY_CODE":"US","OBJECT_TYPE":"PAYLOAD","APOAPSIS":"344.693","OBJECT_NAME":"STARLINK-1367","SEMIMAJOR_AXIS":"6717.838","DECAY_DATE":null},{"SEMIMAJOR_AXIS":"6925.354","DECAY_DATE":null,"OBJECT_NAME":"STARLINK-1368","APOAPSIS":"548.236","OBJECT_TYPE":"PAYLOAD","COUNTRY_CODE":"US","CLASSIFICATION_TYPE":"U","CENTER_NAME":"EARTH","BSTAR":"0.00013231000000","PERIAPSIS":"546.202","FILE":"3320325","SITE":"AFETR","PERIOD":"95.592","GP_ID":"196900212","TLE_LINE1":"1 45540U 20025K   22055.90792516  .00001690  00000-0  13231-3 0  9999","MEAN_MOTION":"15.06398274","RCS_SIZE":"LARGE","EPHEMERIS_TYPE":"0","MEAN_MOTION_DOT":"0.00001690","EPOCH":"2022-02-24T21:47:24.733824","MEAN_MOTION_DDOT":"0.0000000000000","TLE_LINE2":"2 45540  53.0524 242.6738 0001469  75.0999 285.0152 15.06398274102955","REF_FRAME":"TEME","OBJECT_ID":"2020-025K","ARG_OF_PERICENTER":"75.0999","REV_AT_EPOCH":"10295","TIME_SYSTEM":"UTC","MEAN_ANOMALY":"285.0152","RA_OF_ASC_NODE":"242.6738","ECCENTRICITY":"0.00014690","MEAN_ELEMENT_THEORY":"SGP4","LAUNCH_DATE":"2020-04-22","NORAD_CAT_ID":"45540","INCLINATION":"53.0524","ELEMENT_SET_NO":"999"},{"OBJECT_NAME":"STARLINK-1369","DECAY_DATE":null,"SEMIMAJOR_AXIS":"6925.368","COUNTRY_CODE":"US","OBJECT_TYPE":"PAYLOAD","APOAPSIS":"548.490","BSTAR":"0.00010466000000","CENTER_NAME":"EARTH","CLASSIFICATION_TYPE":"U","PERIOD":"95.593","SITE":"AFETR","FILE":"3320325","PERIAPSIS":"545.976","EPHEMERIS_TYPE":"0","TLE_LINE1":"1 45541U 20025L   22055.91161940  .00001277  00000-0  10466-3 0  9990","MEAN_MOTION":"15.06393797","RCS_SIZE":"LARGE","GP_ID":"196899963","TIME_SYSTEM":"UTC","REV_AT_EPOCH":"10295","TLE_LINE2":"2 45541  53.0530 242.6587 0001815  60.7406 299.3764 15.06393797102956","MEAN_MOTION_DDOT":"0.0000000000000","OBJECT_ID":"2020-025L","REF_FRAME":"TEME","ARG_OF_PERICENTER":"60.7406","EPOCH":"2022-02-24T21:52:43.916160","MEAN_MOTION_DOT":"0.00001277","ECCENTRICITY":"0.00018150","RA_OF_ASC_NODE":"242.6587","MEAN_ANOMALY":"299.3764","ELEMENT_SET_NO":"999","INCLINATION":"53.0530","NORAD_CAT_ID":"45541","LAUNCH_DATE":"2020-04-22","MEAN_ELEMENT_THEORY":"SGP4"},{"MEAN_ANOMALY":"286.4306","ECCENTRICITY":"0.00014730","RA_OF_ASC_NODE":"243.1166","MEAN_ELEMENT_THEORY":"SGP4","ELEMENT_SET_NO":"999","INCLINATION":"53.0540","NORAD_CAT_ID":"45542","LAUNCH_DATE":"2020-04-22","EPHEMERIS_TYPE":"0","MEAN_MOTION":"15.06391930","TLE_LINE1":"1 45542U 20025M   22055.81209444  .00001285  00000-0  10517-3 0  9998","RCS_SIZE":"LARGE","GP_ID":"196898711","EPOCH":"2022-02-24T19:29:24.959616","MEAN_MOTION_DOT":"0.00001285","TIME_SYSTEM":"UTC","REV_AT_EPOCH":"10294","TLE_LINE2":"2 45542  53.0540 243.1166 0001473  73.6845 286.4306 15.06391930102942","ARG_OF_PERICENTER":"73.6845","MEAN_MOTION_DDOT":"0.0000000000000","REF_FRAME":"TEME","OBJECT_ID":"2020-025M","CLASSIFICATION_TYPE":"U","CENTER_NAME":"EARTH","BSTAR":"0.00010517000000","PERIAPSIS":"546.218","FILE":"3320325","PERIOD":"95.593","SITE":"AFETR","DECAY_DATE":null,"SEMIMAJOR_AXIS":"6925.373","OBJECT_NAME":"STARLINK-1371","OBJECT_TYPE":"PAYLOAD","APOAPSIS":"548.258","COUNTRY_CODE":"US"},{"TIME_SYSTEM":"UTC","REV_AT_EPOCH":"10205","TLE_LINE2":"2 45543  53.0546 242.6454 0001638  68.3024 291.8139 15.06391638102057","MEAN_MOTION_DDOT":"0.0000000000000","REF_FRAME":"TEME","ARG_OF_PERICENTER":"68.3024","OBJECT_ID":"2020-025N","EPOCH":"2022-02-24T21:58:01.632288","MEAN_MOTION_DOT":"0.00001154","EPHEMERIS_TYPE":"0","MEAN_MOTION":"15.06391638","TLE_LINE1":"1 45543U 20025N   22055.91529667  .00001154  00000-0  96353-4 0  9990","RCS_SIZE":"LARGE","GP_ID":"196899461","ELEMENT_SET_NO":"999","NORAD_CAT_ID":"45543","INCLINATION":"53.0546","LAUNCH_DATE":"2020-04-22","MEAN_ELEMENT_THEORY":"SGP4","ECCENTRICITY":"0.00016380","RA_OF_ASC_NODE":"242.6454","MEAN_ANOMALY":"291.8139","COUNTRY_CODE":"US","OBJECT_TYPE":"PAYLOAD","APOAPSIS":"548.374","OBJECT_NAME":"STARLINK-1372","DECAY_DATE":null,"SEMIMAJOR_AXIS":"6925.374","PERIOD":"95.593","SITE":"AFETR","FILE":"3320325","PERIAPSIS":"546.105","BSTAR":"0.00009635300000","CLASSIFICATION_TYPE":"U","CENTER_NAME":"EARTH"},{"COUNTRY_CODE":"US","APOAPSIS":"548.167","OBJECT_TYPE":"PAYLOAD","OBJECT_NAME":"STARLINK-1373","SEMIMAJOR_AXIS":"6925.372","DECAY_DATE":null,"SITE":"AFETR","PERIOD":"95.593","FILE":"3320325","PERIAPSIS":"546.306","BSTAR":"-0.00000224720000","CLASSIFICATION_TYPE":"U","CENTER_NAME":"EARTH","TLE_LINE2":"2 45544  53.0536 242.5722 0001343  90.7578 269.3565 15.06392513102966","OBJECT_ID":"2020-025P","MEAN_MOTION_DDOT":"0.0000000000000","ARG_OF_PERICENTER":"90.7578","REF_FRAME":"TEME","REV_AT_EPOCH":"10296","TIME_SYSTEM":"UTC","MEAN_MOTION_DOT":"-0.00000315","EPOCH":"2022-02-24T22:24:33.704352","GP_ID":"196899713","RCS_SIZE":"LARGE","TLE_LINE1":"1 45544U 20025P   22055.93372343 -.00000315  00000-0 -22472-5 0  9992","MEAN_MOTION":"15.06392513","EPHEMERIS_TYPE":"0","LAUNCH_DATE":"2020-04-22","INCLINATION":"53.0536","NORAD_CAT_ID":"45544","ELEMENT_SET_NO":"999","MEAN_ELEMENT_THEORY":"SGP4","RA_OF_ASC_NODE":"242.5722","ECCENTRICITY":"0.00013430","MEAN_ANOMALY":"269.3565"},{"SEMIMAJOR_AXIS":"6925.383","DECAY_DATE":null,"OBJECT_NAME":"STARLINK-1374","APOAPSIS":"548.329","OBJECT_TYPE":"PAYLOAD","COUNTRY_CODE":"US","CLASSIFICATION_TYPE":"U","CENTER_NAME":"EARTH","BSTAR":"0.00000192320000","FILE":"3320325","PERIAPSIS":"546.166","SITE":"AFETR","PERIOD":"95.593","GP_ID":"196900463","RCS_SIZE":"LARGE","TLE_LINE1":"1 45545U 20025Q   22055.88581104 -.00000253  00000-0  19232-5 0  9994","MEAN_MOTION":"15.06388878","EPHEMERIS_TYPE":"0","MEAN_MOTION_DOT":"-0.00000253","EPOCH":"2022-02-24T21:15:34.073856","MEAN_MOTION_DDOT":"0.0000000000000","TLE_LINE2":"2 45545  53.0527 242.7808 0001562  77.8484 282.2680 15.06388878102937","ARG_OF_PERICENTER":"77.8484","REF_FRAME":"TEME","OBJECT_ID":"2020-025Q","REV_AT_EPOCH":"10293","TIME_SYSTEM":"UTC","MEAN_ANOMALY":"282.2680","RA_OF_ASC_NODE":"242.7808","ECCENTRICITY":"0.00015620","MEAN_ELEMENT_THEORY":"SGP4","LAUNCH_DATE":"2020-04-22","INCLINATION":"53.0527","NORAD_CAT_ID":"45545","ELEMENT_SET_NO":"999"},{"PERIOD":"95.592","SITE":"AFETR","FILE":"3320325","PERIAPSIS":"546.072","BSTAR":"0.00019377000000","CLASSIFICATION_TYPE":"U","CENTER_NAME":"EARTH","COUNTRY_CODE":"US","OBJECT_TYPE":"PAYLOAD","APOAPSIS":"548.348","OBJECT_NAME":"STARLINK-1375","DECAY_DATE":null,"SEMIMAJOR_AXIS":"6925.345","ELEMENT_SET_NO":"999","INCLINATION":"53.0520","NORAD_CAT_ID":"45546","LAUNCH_DATE":"2020-04-22","MEAN_ELEMENT_THEORY":"SGP4","ECCENTRICITY":"0.00016430","RA_OF_ASC_NODE":"242.7207","MEAN_ANOMALY":"278.5941","TIME_SYSTEM":"UTC","REV_AT_EPOCH":"10295","REF_FRAME":"TEME","TLE_LINE2":"2 45546  53.0520 242.7207 0001643  81.5234 278.5941 15.06401208102952","MEAN_MOTION_DDOT":"0.0000000000000","OBJECT_ID":"2020-025R","ARG_OF_PERICENTER":"81.5234","EPOCH":"2022-02-24T21:31:28.948512","MEAN_MOTION_DOT":"0.00002606","EPHEMERIS_TYPE":"0","TLE_LINE1":"1 45546U 20025R   22055.89686283  .00002606  00000-0  19377-3 0  9991","MEAN_MOTION":"15.06401208","RCS_SIZE":"LARGE","GP_ID":"196899211"},{"SEMIMAJOR_AXIS":"6925.383","DECAY_DATE":null,"OBJECT_NAME":"STARLINK-1377","APOAPSIS":"548.228","OBJECT_TYPE":"PAYLOAD","COUNTRY_CODE":"US","CLASSIFICATION_TYPE":"U","CENTER_NAME":"EARTH","BSTAR":"-0.00000916810000","PERIAPSIS":"546.268","FILE":"3320325","SITE":"AFETR","PERIOD":"95.593","GP_ID":"196898962","TLE_LINE1":"1 45547U 20025S   22055.89318451 -.00000418  00000-0 -91681-5 0  9992","MEAN_MOTION":"15.06388831","RCS_SIZE":"LARGE","EPHEMERIS_TYPE":"0","MEAN_MOTION_DOT":"-0.00000418","EPOCH":"2022-02-24T21:26:11.141664","MEAN_MOTION_DDOT":"0.0000000000000","TLE_LINE2":"2 45547  53.0549 242.7350 0001415  68.3449 291.7690 15.06388831102966","OBJECT_ID":"2020-025S","REF_FRAME":"TEME","ARG_OF_PERICENTER":"68.3449","REV_AT_EPOCH":"10296","TIME_SYSTEM":"UTC","MEAN_ANOMALY":"291.7690","RA_OF_ASC_NODE":"242.7350","ECCENTRICITY":"0.00014150","MEAN_ELEMENT_THEORY":"SGP4","LAUNCH_DATE":"2020-04-22","INCLINATION":"53.0549","NORAD_CAT_ID":"45547","ELEMENT_SET_NO":"999"},{"OBJECT_NAME":"STARLINK-1378","SEMIMAJOR_AXIS":"6925.348","DECAY_DATE":null,"COUNTRY_CODE":"US","OBJECT_TYPE":"PAYLOAD","APOAPSIS":"548.447","BSTAR":"0.00021457000000","CENTER_NAME":"EARTH","CLASSIFICATION_TYPE":"U","SITE":"AFETR","PERIOD":"95.592","PERIAPSIS":"545.980","FILE":"3320325","GP_ID":"196900213","EPHEMERIS_TYPE":"0","TLE_LINE1":"1 45548U 20025T   22055.91898824  .00002916  00000-0  21457-3 0  9998","RCS_SIZE":"LARGE","MEAN_MOTION":"15.06400034","OBJECT_ID":"2020-025T","TLE_LINE2":"2 45548  53.0533 242.6397 0001781  72.4558 287.6625 15.06400034102954","MEAN_MOTION_DDOT":"0.0000000000000","REF_FRAME":"TEME","ARG_OF_PERICENTER":"72.4558","TIME_SYSTEM":"UTC","REV_AT_EPOCH":"10295","EPOCH":"2022-02-24T22:03:20.583936","MEAN_MOTION_DOT":"0.00002916","RA_OF_ASC_NODE":"242.6397","ECCENTRICITY":"0.00017810","MEAN_ANOMALY":"287.6625","LAUNCH_DATE":"2020-04-22","ELEMENT_SET_NO":"999","NORAD_CAT_ID":"45548","INCLINATION":"53.0533","MEAN_ELEMENT_THEORY":"SGP4"}];
